#dP2022  2 26 12  0  0.00000000      96 __u+U ITR00 EXT  IAC
## 2198 561600.00000000   900.00000000 59636 0.5000000000000
+  118   C06C07C08C09C10C11C12C13C14C16C19C20C21C22C23C24C25
+        C26C27C28C29C30C32C33C34C35C36C37C38C39C40C41C42C43
+        C44C45C46E01E02E03E04E05E07E08E09E10E11E12E13E14E15
+        E18E19E21E24E25E26E27E30E31E33E34E36G01G02G03G04G05
+        G06G07G08G09G10G11G12G13G14G15G16G17G18G19G20G21G22
+        G23G24G25G26G27G28G29G30G31G32J01J02J03R01R02R03R04
+        R05R07R08R09R11R12R13R14R15R17R18R19R20R21R22R24  0
++         9 10 10  9  8  7 10  8  9  9  8  8  8  7  9  8  9
++         9  9  7  9  8  9  8  9  9  9  8 11  9 11  8  8 10
++         8 11  9  6  9  8  8  8  8  0  7  7  9  7  7  8  8
++         8  7  8  7  7  7  6  8  6  8  9  8  8  7  7  8  6
++         7  7  7  6  7  7  8  7  7  7  8  8  7  7  8  7  7
++         8  8  7  6  8  7  7  7  7  0 11 10 10  8  6  8  7
++         8  8  7  9  7  7  7  8  9 10  8  9  9  8 10  7  0
%c M  cc GPS ccc cccc cccc cccc cccc ccccc ccccc ccccc ccccc
%c cc cc ccc ccc cccc cccc cccc cccc ccccc ccccc ccccc ccccc
%f  0.0000000  0.000000000  0.00000000000  0.000000000000000
%f  0.0000000  0.000000000  0.00000000000  0.000000000000000
%i    0    0    0    0      0      0      0      0         0
%i    0    0    0    0      0      0      0      0         0
/* IAC                                ULTRA-RAPID PREDICTION
/* S/V CLOCKS ARE ALIGNED TO GNSS TIME                      
/* G:C1WC2W R:C1PC2P E:C1XC5X C:C2IC6I J:C1CC2S             
/* PCV:IGS14_2196 OL/AL:FES2004  NONE     YN ORB:CoN CLK:CoN
*  2022 02 26 20 15  0.00000000
PC06  -4448.978872  37992.765831  17965.181751    119.908131
PC07 -10460.819186  25138.227825 -32203.111240   -102.504296
PC08 -19864.735978  33258.739892  16475.994787    161.691691
PC09   1456.977903  41556.763132   8735.035178   -557.809722
PC10  -2036.805805  26684.492992 -32305.237163    139.566433
PC11  -2342.535847  24978.654343 -12127.785508   -183.913099
PC12 -12791.537120  10193.208354 -22570.774034    681.456165
PC13 -12053.504350  33337.695207  22762.020013   -105.080651
PC14  -5333.208500  14992.389492  22951.385801    452.701305
PC16  -4702.711977  37434.173370  19226.180819     91.197201
PC19  -6025.436325 -16847.573669 -21389.359746    892.246033
PC20  13797.242126 -11470.574203 -21347.999055   -832.435261
PC21 -26582.562763  -1186.917872   8463.155659   -934.233557
PC22 -23136.691464 -12736.393734  -9045.071230   -958.718548
PC23  12988.464802  10004.924322 -22585.676446   -952.437391
PC24 -19278.381637  20119.837248  -1187.642507   -944.611353
PC25  -3141.575242  21401.033631 -17628.883231   -773.603384
PC26 -22444.638774   8557.337762  14158.084823    773.563268
PC27  16168.184702    -45.602682  22728.106958    683.656609
PC28  14719.455994  19122.444716  14019.611705     37.352987
PC29  -5493.322851 -27159.472336   3268.293164    520.517333
PC30   7991.009767 -19084.134236  18708.702273    494.146206
PC32  26591.440180   1039.141712  -8369.813046   -970.636031
PC33   5977.022616  16847.720661  21434.331038   -960.442386
PC34  -7431.287970  19897.770672 -18123.988143   -460.132073
PC35 -15174.759071 -19197.082213 -13384.457543    157.947847
PC36   4127.598287 -21501.801470  17323.945363   -920.012170
PC37  22467.417722  -7074.931461 -14975.322595   -953.005817
PC38 -23363.061234  33650.571223   9674.181265    214.236692
PC39  -7550.533372  33319.554820  24829.538754     34.828018
PC40 -14522.721627  18801.194893 -34867.642713    247.805966
PC41  22865.620467  12912.171371   9504.148632   -944.677770
PC42 -14784.548026  11045.044575  20984.781460   -933.606780
PC43   4918.524586  27206.857896  -3906.257946   -939.301523
PC44 -16329.478469    479.619600 -22629.722828    577.754640
PC45 -13073.311877  -9726.382358  22647.618057    690.942362
PC46  18558.685183 -20718.595145   2516.787954   -189.679985
PE01  15786.486737 -17177.287008  18222.315185   -586.687899
PE02 -15595.479891  17210.220620 -18343.269965    282.832598
PE03  -4015.249141  18503.343543  22749.520166   -531.894779
PE04 -13879.099429 -23929.768632 -10520.805452   -973.212884
PE05 -19882.334674   2098.697353  21830.666870   -205.323325
PE07  23960.014915  15308.984666  -8213.586073   -643.044502
PE08  14321.092718  23799.834689  10219.919653   -486.318773
PE09 -24025.855701 -15088.400333   8465.773787   5346.619974
PE10  -8905.267456 -19401.747628 -20505.771650   -497.544210
PE11 -14114.037240  -9030.628477 -24401.937675   4359.471707
PE12  -2538.098875 -26196.504209 -13518.594578   4739.708538
PE13  13787.549982   9745.982949  24321.544542    426.860631
PE14 -22698.877447    876.519656 -23183.078236  -1759.697869
PE15   2469.903419  26274.415778  13427.089035    760.928753
PE18  14038.483394  -5986.118540  18112.832676  -1745.945915
PE19   6254.555609 -16822.827678 -23530.888354   -439.840072
PE21  27945.310299  -9474.750637   2411.247238   -719.479618
PE24 -23962.154663  -5164.978076  16553.239999  -1412.252997
PE25 -28003.128096   9320.673254  -2169.913155   -564.982757
PE26  17008.103831 -13353.683030  20219.480444   -851.471457
PE27  24782.888377   4156.080315 -15659.305496   -241.279265
PE30   5833.481653  15695.052259 -24423.386380   -306.120407
PE31  -7044.786005 -15242.375439  24377.949789   -492.763586
PE33  10270.001381 -27233.562975   5359.347002   -459.061028
PE34 -10103.619482  27342.494047  -5144.921956   -503.949208
PE36 -16936.940938  12425.701115 -20852.737268   -337.898575
PG01  13808.034049 -21311.697334   6854.935108    421.696506
PG02 -15824.170313   2999.961614 -20487.293902   -651.531023
PG03  17723.538784 -12858.317760 -15057.877288   -139.580653
PG04   7935.533009 -14068.586318 -21063.832691   -187.132045
PG05 -26147.480959   5081.433020    438.076855    -72.819352
PG06  -8753.898050 -14377.003701 -20455.622745    214.116864
PG07   3680.085687 -24783.404612   8399.615617    312.967160
PG08  15607.206938  -4038.627830  21141.479863    -57.745893
PG09  -2841.912664 -21211.211542 -15777.835304   -352.394760
PG10  12143.386803  12300.620345  20391.064059   -331.562944
PG11 -16354.878557    509.147020 -20922.936743    -76.726176
PG12 -20743.751068  10398.698473 -13065.057174   -176.963498
PG13 -17990.415617  -5279.646922  18724.148616    268.164563
PG14 -10785.237049 -13377.492740  20264.752664    -88.387406
PG15 -15095.645249   6534.517409  20498.573399    -80.815626
PG16  26650.345185    809.064064  -3120.121983   -474.392737
PG17 -13178.365217 -22871.621837   3122.557449    580.315041
PG18  -4507.383330  24811.256820   8167.556567    231.631088
PG19 -16884.251204 -19915.893480  -5645.289505    124.122837
PG20 -24717.271420    371.676062  -9376.805306    516.530559
PG21  16311.511123 -13189.849840  16563.341039    158.659819
PG22  18022.986444  18014.601180  -7415.902450    219.523236
PG23   -632.055329  15273.532759  21702.473482     -2.249293
PG24 -14473.559914  18961.088709  10941.042482    272.155853
PG25  -8327.493309  15512.240374 -20088.217854    291.065678
PG26  21661.620435   6440.443291 -14280.772280    186.527530
PG27  19825.386355   7716.444368  15949.381184    135.107405
PG28 -18220.909235 -10544.707894  16574.059979    391.906401
PG29   -552.997256  20078.970743 -17396.519687   -485.046128
PG30  -2946.830016 -21557.308442  15134.164877   -515.736478
PG31  11050.993938  11950.172689 -21029.819823   -166.546390
PG32  17001.131531  20520.177628   -781.301316    -74.863732
PJ01 -28026.747077  19986.490929  29416.219036    226.941852
PJ02 -35933.149711  18285.351462  -7772.113302     -1.609798
PJ03 -19958.673276  27830.709718 -19958.794347     -0.712904
PR01   7325.988890  13940.037405  20067.156036      7.138125
PR02  21750.893231  12804.571238   3961.788419    510.880017
PR03  21623.626983   3601.255133 -13045.385368     52.181711
PR04   9296.884112  -7213.311202 -22602.875015    129.497508
PR05  -8017.613907 -14165.212431 -19617.179840     88.423761
PR07 -21245.992300  -3056.858629  13784.149385     32.064093
PR08  -9187.370864   7467.352320  22649.511364    -63.762531
PR09 -13086.212429  -3817.715055  21586.871482     41.585967
PR11 -18234.279484  16604.779205  -6529.355940     44.807816
PR12  -3679.594140  14506.998771 -20629.986250     17.287202
PR13  11958.551005   4541.022407 -22091.029260    -18.780034
PR14  21619.855772  -9014.359075 -10081.355478     74.811667
PR15  17995.810025 -16552.901990   7287.555464     97.922544
PR17  10410.383964  -2108.188962  23203.123260    505.092408
PR18   6188.186453 -18595.107339  16310.344056    108.602110
PR19    -69.737092 -25439.493521   1852.199722   -179.632664
PR20  -8115.316870 -17146.798827 -17015.462478    -65.677046
PR21 -10180.824340   3603.074284 -23104.926867   -281.154896
PR22  -5896.991099  19364.610400 -15599.475019   -167.224110
PR24   9054.365581  16368.070822  17358.756348     81.999275
EOF
